start=new Date('2022-08-29T00:00:00.000Z').valueOf();
sats=[{"REF_FRAME":"TEME","LAUNCH_DATE":"2021-03-14","OBJECT_ID":"2021-021AU","INCLINATION":"53.0562","NORAD_CAT_ID":"47902","REV_AT_EPOCH":"8184","DECAY_DATE":null,"EPOCH":"2022-08-28T11:39:04.544928","ARG_OF_PERICENTER":"83.7808","RCS_SIZE":"LARGE","PERIOD":"95.591","SITE":"AFETR","CLASSIFICATION_TYPE":"U","OBJECT_NAME":"STARLINK-2362","ECCENTRICITY":"0.00013750","SEMIMAJOR_AXIS":"6925.309","MEAN_MOTION_DOT":"0.00001438","GP_ID":"211178736","ELEMENT_SET_NO":"999","COUNTRY_CODE":"US","OBJECT_TYPE":"PAYLOAD","MEAN_MOTION_DDOT":"0.0000000000000","TLE_LINE2":"2 47902  53.0562 309.0868 0001375  83.7808 276.3337 15.06412841 81843","FILE":"3549654","PERIAPSIS":"546.222","RA_OF_ASC_NODE":"309.0868","MEAN_ELEMENT_THEORY":"SGP4","BSTAR":"0.00011540000000","MEAN_MOTION":"15.06412841","TIME_SYSTEM":"UTC","EPHEMERIS_TYPE":"0","MEAN_ANOMALY":"276.3337","APOAPSIS":"548.126","TLE_LINE1":"1 47902U 21021AU  22240.48546927  .00001438  00000-0  11540-3 0  9993","CENTER_NAME":"EARTH"},{"ARG_OF_PERICENTER":"76.1054","EPOCH":"2022-08-28T09:01:08.878944","DECAY_DATE":null,"SITE":"AFETR","PERIOD":"95.592","RCS_SIZE":"LARGE","OBJECT_NAME":"STARLINK-2363","CLASSIFICATION_TYPE":"U","REF_FRAME":"TEME","LAUNCH_DATE":"2021-03-14","INCLINATION":"53.0549","OBJECT_ID":"2021-021AV","REV_AT_EPOCH":"8234","NORAD_CAT_ID":"47903","PERIAPSIS":"546.374","FILE":"3549654","EPHEMERIS_TYPE":"0","TIME_SYSTEM":"UTC","MEAN_MOTION":"15.06396891","BSTAR":"0.00009094100000","MEAN_ELEMENT_THEORY":"SGP4","RA_OF_ASC_NODE":"289.5691","MEAN_ANOMALY":"284.0072","CENTER_NAME":"EARTH","TLE_LINE1":"1 47903U 21021AV  22240.37579721  .00001073  00000-0  90941-4 0  9998","APOAPSIS":"548.072","MEAN_MOTION_DOT":"0.00001073","SEMIMAJOR_AXIS":"6925.358","ECCENTRICITY":"0.00012260","GP_ID":"211178487","ELEMENT_SET_NO":"999","TLE_LINE2":"2 47903  53.0549 289.5691 0001226  76.1054 284.0072 15.06396891 82343","MEAN_MOTION_DDOT":"0.0000000000000","COUNTRY_CODE":"US","OBJECT_TYPE":"PAYLOAD"},{"TLE_LINE2":"2 47904  53.0548 289.0005 0001209  85.9567 274.1560 15.06396094 82005","COUNTRY_CODE":"US","OBJECT_TYPE":"PAYLOAD","MEAN_MOTION_DDOT":"0.0000000000000","ELEMENT_SET_NO":"999","GP_ID":"211177235","SEMIMAJOR_AXIS":"6925.361","MEAN_MOTION_DOT":"0.00000318","ECCENTRICITY":"0.00012090","CENTER_NAME":"EARTH","TLE_LINE1":"1 47904U 21021AW  22240.50575256  .00000318  00000-0  40241-4 0  9992","APOAPSIS":"548.063","MEAN_ANOMALY":"274.1560","MEAN_MOTION":"15.06396094","TIME_SYSTEM":"UTC","EPHEMERIS_TYPE":"0","RA_OF_ASC_NODE":"289.0005","MEAN_ELEMENT_THEORY":"SGP4","BSTAR":"0.00004024100000","FILE":"3549654","PERIAPSIS":"546.388","NORAD_CAT_ID":"47904","REV_AT_EPOCH":"8200","INCLINATION":"53.0548","OBJECT_ID":"2021-021AW","LAUNCH_DATE":"2021-03-14","REF_FRAME":"TEME","OBJECT_NAME":"STARLINK-2364","CLASSIFICATION_TYPE":"U","SITE":"AFETR","RCS_SIZE":"LARGE","PERIOD":"95.592","EPOCH":"2022-08-28T12:08:17.021184","ARG_OF_PERICENTER":"85.9567","DECAY_DATE":null},{"CLASSIFICATION_TYPE":"U","OBJECT_NAME":"STARLINK-2365","DECAY_DATE":null,"EPOCH":"2022-08-28T13:37:08.843808","ARG_OF_PERICENTER":"66.3534","RCS_SIZE":"LARGE","PERIOD":"95.592","SITE":"AFETR","OBJECT_ID":"2021-021AX","INCLINATION":"53.0543","NORAD_CAT_ID":"47905","REV_AT_EPOCH":"8214","REF_FRAME":"TEME","LAUNCH_DATE":"2021-03-14","MEAN_ANOMALY":"293.7587","APOAPSIS":"548.085","TLE_LINE1":"1 47905U 21021AX  22240.56746347  .00001499  00000-0  11952-3 0  9997","CENTER_NAME":"EARTH","PERIAPSIS":"546.333","FILE":"3550014","RA_OF_ASC_NODE":"288.7058","MEAN_ELEMENT_THEORY":"SGP4","BSTAR":"0.00011952000000","MEAN_MOTION":"15.06401575","TIME_SYSTEM":"UTC","EPHEMERIS_TYPE":"0","ELEMENT_SET_NO":"999","OBJECT_TYPE":"PAYLOAD","COUNTRY_CODE":"US","MEAN_MOTION_DDOT":"0.0000000000000","TLE_LINE2":"2 47905  53.0543 288.7058 0001265  66.3534 293.7587 15.06401575 82146","ECCENTRICITY":"0.00012650","SEMIMAJOR_AXIS":"6925.344","MEAN_MOTION_DOT":"0.00001499","GP_ID":"211211445"},{"TLE_LINE1":"1 47906U 21021AY  22240.84784129 -.00095686  00000-0 -56145-3 0  9995","APOAPSIS":"342.170","CENTER_NAME":"EARTH","MEAN_ANOMALY":"85.3334","MEAN_ELEMENT_THEORY":"SGP4","BSTAR":"-0.00056145000000","RA_OF_ASC_NODE":"91.5750","EPHEMERIS_TYPE":"0","TIME_SYSTEM":"UTC","MEAN_MOTION":"15.77677744","PERIAPSIS":"331.878","FILE":"3550014","MEAN_MOTION_DDOT":"0.0000000000000","COUNTRY_CODE":"US","OBJECT_TYPE":"PAYLOAD","TLE_LINE2":"2 47906  53.0277  91.5750 0007663 274.6810  85.3334 15.77677744 84912","ELEMENT_SET_NO":"999","GP_ID":"211211695","ECCENTRICITY":"0.00076630","MEAN_MOTION_DOT":"-0.00095686","SEMIMAJOR_AXIS":"6715.159","CLASSIFICATION_TYPE":"U","OBJECT_NAME":"STARLINK-2366","PERIOD":"91.273","RCS_SIZE":"LARGE","SITE":"AFETR","DECAY_DATE":null,"ARG_OF_PERICENTER":"274.6810","EPOCH":"2022-08-28T20:20:53.487456","REV_AT_EPOCH":"8491","NORAD_CAT_ID":"47906","OBJECT_ID":"2021-021AY","INCLINATION":"53.0277","LAUNCH_DATE":"2021-03-14","REF_FRAME":"TEME"},{"RA_OF_ASC_NODE":"308.9806","MEAN_ELEMENT_THEORY":"SGP4","BSTAR":"0.00003896000000","MEAN_MOTION":"15.06406269","TIME_SYSTEM":"UTC","EPHEMERIS_TYPE":"0","FILE":"3549681","PERIAPSIS":"546.398","TLE_LINE1":"1 47907U 21021AZ  22240.51127431  .00000299  00000-0  38960-4 0  9997","APOAPSIS":"547.991","CENTER_NAME":"EARTH","MEAN_ANOMALY":"275.3287","GP_ID":"211182362","ECCENTRICITY":"0.00011500","SEMIMAJOR_AXIS":"6925.329","MEAN_MOTION_DOT":"0.00000299","OBJECT_TYPE":"PAYLOAD","COUNTRY_CODE":"US","MEAN_MOTION_DDOT":"0.0000000000000","TLE_LINE2":"2 47907  53.0535 308.9806 0001150  84.7833 275.3287 15.06406269 81264","ELEMENT_SET_NO":"999","RCS_SIZE":"LARGE","PERIOD":"95.592","SITE":"AFETR","DECAY_DATE":null,"EPOCH":"2022-08-28T12:16:14.100384","ARG_OF_PERICENTER":"84.7833","CLASSIFICATION_TYPE":"U","OBJECT_NAME":"STARLINK-2367","LAUNCH_DATE":"2021-03-14","REF_FRAME":"TEME","NORAD_CAT_ID":"47907","REV_AT_EPOCH":"8126","OBJECT_ID":"2021-021AZ","INCLINATION":"53.0535"},{"LAUNCH_DATE":"2021-03-14","REF_FRAME":"TEME","REV_AT_EPOCH":"8174","NORAD_CAT_ID":"47908","OBJECT_ID":"2021-021BA","INCLINATION":"53.0545","PERIOD":"95.592","RCS_SIZE":"LARGE","SITE":"AFETR","DECAY_DATE":null,"ARG_OF_PERICENTER":"82.0751","EPOCH":"2022-08-28T14:02:23.691552","CLASSIFICATION_TYPE":"U","OBJECT_NAME":"STARLINK-2368","GP_ID":"211212193","ECCENTRICITY":"0.00013020","MEAN_MOTION_DOT":"0.00000707","SEMIMAJOR_AXIS":"6925.343","MEAN_MOTION_DDOT":"0.0000000000000","COUNTRY_CODE":"US","OBJECT_TYPE":"PAYLOAD","TLE_LINE2":"2 47908  53.0545 308.6495 0001302  82.0751 278.0385 15.06401867 81747","ELEMENT_SET_NO":"999","MEAN_ELEMENT_THEORY":"SGP4","BSTAR":"0.00006637000000","RA_OF_ASC_NODE":"308.6495","TIME_SYSTEM":"UTC","EPHEMERIS_TYPE":"0","MEAN_MOTION":"15.06401867","FILE":"3550014","PERIAPSIS":"546.306","TLE_LINE1":"1 47908U 21021BA  22240.58499643  .00000707  00000-0  66370-4 0  9992","APOAPSIS":"548.110","CENTER_NAME":"EARTH","MEAN_ANOMALY":"278.0385"},{"GP_ID":"211210945","ECCENTRICITY":"0.00010590","SEMIMAJOR_AXIS":"6925.325","MEAN_MOTION_DOT":"0.00001086","COUNTRY_CODE":"US","OBJECT_TYPE":"PAYLOAD","MEAN_MOTION_DDOT":"0.0000000000000","TLE_LINE2":"2 47909  53.0539 298.2791 0001059  79.3939 280.7169 15.06407690 82066","ELEMENT_SET_NO":"999","RA_OF_ASC_NODE":"298.2791","MEAN_ELEMENT_THEORY":"SGP4","BSTAR":"0.00009174400000","MEAN_MOTION":"15.06407690","TIME_SYSTEM":"UTC","EPHEMERIS_TYPE":"0","FILE":"3550014","PERIAPSIS":"546.457","TLE_LINE1":"1 47909U 21021BB  22240.66700313  .00001086  00000-0  91744-4 0  9995","APOAPSIS":"547.923","CENTER_NAME":"EARTH","MEAN_ANOMALY":"280.7169","LAUNCH_DATE":"2021-03-14","REF_FRAME":"TEME","NORAD_CAT_ID":"47909","REV_AT_EPOCH":"8206","OBJECT_ID":"2021-021BB","INCLINATION":"53.0539","RCS_SIZE":"LARGE","PERIOD":"95.592","SITE":"AFETR","DECAY_DATE":null,"EPOCH":"2022-08-28T16:00:29.070432","ARG_OF_PERICENTER":"79.3939","CLASSIFICATION_TYPE":"U","OBJECT_NAME":"STARLINK-2369"},{"MEAN_ANOMALY":"286.8774","CENTER_NAME":"EARTH","TLE_LINE1":"1 47910U 21021BC  22240.43753879  .00000549  00000-0  55770-4 0  9999","APOAPSIS":"548.254","PERIAPSIS":"546.184","FILE":"3549654","TIME_SYSTEM":"UTC","EPHEMERIS_TYPE":"0","MEAN_MOTION":"15.06398265","BSTAR":"0.00005577000000","MEAN_ELEMENT_THEORY":"SGP4","RA_OF_ASC_NODE":"299.3113","ELEMENT_SET_NO":"999","TLE_LINE2":"2 47910  53.0547 299.3113 0001495  73.2379 286.8774 15.06398265 81887","MEAN_MOTION_DDOT":"0.0000000000000","OBJECT_TYPE":"PAYLOAD","COUNTRY_CODE":"US","MEAN_MOTION_DOT":"0.00000549","SEMIMAJOR_AXIS":"6925.354","ECCENTRICITY":"0.00014950","GP_ID":"211178737","OBJECT_NAME":"STARLINK-2370","CLASSIFICATION_TYPE":"U","ARG_OF_PERICENTER":"73.2379","EPOCH":"2022-08-28T10:30:03.351456","DECAY_DATE":null,"SITE":"AFETR","PERIOD":"95.592","RCS_SIZE":"LARGE","INCLINATION":"53.0547","OBJECT_ID":"2021-021BC","REV_AT_EPOCH":"8188","NORAD_CAT_ID":"47910","REF_FRAME":"TEME","LAUNCH_DATE":"2021-03-14"},{"NORAD_CAT_ID":"47911","REV_AT_EPOCH":"8151","OBJECT_ID":"2021-021BD","INCLINATION":"53.0557","LAUNCH_DATE":"2021-03-14","REF_FRAME":"TEME","CLASSIFICATION_TYPE":"U","OBJECT_NAME":"STARLINK-2371","RCS_SIZE":"LARGE","PERIOD":"95.592","SITE":"AFETR","DECAY_DATE":null,"EPOCH":"2022-08-28T12:28:52.554144","ARG_OF_PERICENTER":"83.4739","OBJECT_TYPE":"PAYLOAD","COUNTRY_CODE":"US","MEAN_MOTION_DDOT":"0.0000000000000","TLE_LINE2":"2 47911  53.0557 314.1727 0001290  83.4739 276.6396 15.06409108 81518","ELEMENT_SET_NO":"999","GP_ID":"211178488","ECCENTRICITY":"0.00012900","SEMIMAJOR_AXIS":"6925.321","MEAN_MOTION_DOT":"0.00000585","TLE_LINE1":"1 47911U 21021BD  22240.52005271  .00000585  00000-0  58165-4 0  9997","APOAPSIS":"548.079","CENTER_NAME":"EARTH","MEAN_ANOMALY":"276.6396","RA_OF_ASC_NODE":"314.1727","MEAN_ELEMENT_THEORY":"SGP4","BSTAR":"0.00005816500000","MEAN_MOTION":"15.06409108","EPHEMERIS_TYPE":"0","TIME_SYSTEM":"UTC","PERIAPSIS":"546.292","FILE":"3549654"}];
